OBJECT_NAME,OBJECT_ID,EPOCH,MEAN_MOTION,ECCENTRICITY,INCLINATION,RA_OF_ASC_NODE,ARG_OF_PERICENTER,MEAN_ANOMALY,EPHEMERIS_TYPE,CLASSIFICATION_TYPE,NORAD_CAT_ID,ELEMENT_SET_NO,REV_AT_EPOCH,BSTAR,MEAN_MOTION_DOT,MEAN_MOTION_DDOT
STARLINK-5786,2023-042AY,2026-01-02T01:52:58.787616,15.02535354,.0001818,43.0038,44.7506,267.2458,92.8176,0,U,56032,999,15304,.47127E-4,.433E-5,0
STARLINK-5782,2023-042BA,2026-01-01T11:29:49.875936,15.02544217,.0001361,43.0047,47.9945,275.1341,84.9346,0,U,56034,999,15295,-.62893E-4,-.1053E-4,0
STARLINK-5792,2023-042BB,2026-01-02T03:38:17.795904,15.02542810,.0001339,43.0040,44.4413,258.3535,101.7157,0,U,56035,999,15305,.25814E-3,.3286E-4,0
STARLINK-5790,2023-042BC,2026-01-02T03:31:54.745824,15.02529886,.000126,43.0041,44.4060,266.9417,93.1281,0,U,56036,999,15305,-.1631E-4,-.424E-5,0
STARLINK-5758,2023-042BD,2026-01-02T02:26:54.235968,15.02535467,.0001349,43.0053,31.8737,262.7968,97.2721,0,U,56037,999,15319,.49295E-4,.462E-5,0
STARLINK-5793,2023-042BE,2026-01-02T03:23:55.037472,15.02545455,.0001023,43.0036,44.3685,279.7615,80.3112,0,U,56038,999,15305,-.60734E-4,-.1024E-4,0
STARLINK-5795,2023-042BF,2026-01-02T02:20:30.747840,15.02535156,.0001023,43.0043,31.8381,272.8675,87.2050,0,U,56039,999,15319,.39268E-4,.327E-5,0
STARLINK-5798,2023-042BG,2026-01-02T02:17:18.712608,15.02535705,.0001393,43.0054,31.8186,269.0846,90.9837,0,U,56040,999,15319,.6471E-4,.671E-5,0
STARLINK-5800,2023-042BH,2026-01-02T03:49:50.553696,15.02540421,.0001345,43.0042,31.4430,265.4941,94.5748,0,U,56041,999,15320,.10548E-3,.1222E-4,0
ONEWEB-0537,2023-043A,2026-01-02T03:23:23.205120,13.16593650,.0001361,87.9043,261.8333,82.1964,277.9322,0,U,56046,999,13711,-.19591E-4,.5E-7,0
ONEWEB-0538,2023-043B,2026-01-02T03:14:15.275328,13.16593376,.0001216,87.9043,261.8380,70.8993,289.2269,0,U,56047,999,13712,-.73378E-4,-.15E-6,0
ONEWEB-0546,2023-043C,2026-01-02T02:56:01.167072,13.16593913,.0001465,87.9054,261.8347,103.9060,256.2234,0,U,56048,999,13711,.93394E-5,.16E-6,0
ONEWEB-0547,2023-043D,2026-01-02T04:06:12.890592,13.21827410,.0001503,87.9226,277.0878,68.5932,291.5362,0,U,56049,999,13629,.18411E-3,.89E-6,0
ONEWEB-0548,2023-043E,2026-01-01T18:24:09.880128,13.16596197,.00019733,87.9037,261.9093,75.3558,284.7792,0,U,56050,999,13706,.32665045E-4,.25E-6,0
ONEWEB-0549,2023-043F,2026-01-02T03:55:32.491200,13.21828113,.0001421,87.9225,277.1027,65.8882,294.2400,0,U,56051,999,13629,.8741E-4,.49E-6,0
ONEWEB-0550,2023-043G,2026-01-02T03:36:36.159264,13.21825236,.0001688,87.9225,277.1009,79.2446,280.8878,0,U,56052,999,13629,.52006E-4,.34E-6,0
ONEWEB-0551,2023-043H,2026-01-01T17:48:11.736864,13.15547941,.00016422,87.9006,292.4499,67.0724,293.0580,0,U,56053,999,13451,-.17621257E-3,-.54E-6,0
ONEWEB-0552,2023-043J,2026-01-02T03:29:27.297312,13.21828778,.000163,87.9225,277.1100,68.3495,291.7812,0,U,56054,999,13629,.11752E-3,.62E-6,0
ONEWEB-0553,2023-043K,2026-01-02T03:05:09.650688,13.16569344,.0002038,87.9033,261.8418,88.6929,271.4435,0,U,56055,999,13712,.75871E-2,.2913E-4,0
ONEWEB-0554,2023-043L,2026-01-02T02:46:54.388992,13.16595028,.0001794,87.9036,261.8535,76.8862,283.2469,0,U,56056,999,13710,-.1838E-3,-.57E-6,0
ONEWEB-0555,2023-043M,2026-01-02T03:41:37.633920,13.16593463,.0001514,87.9044,261.8286,95.4337,264.6967,0,U,56057,999,13711,.29164E-3,.124E-5,0
ONEWEB-0557,2023-043N,2026-01-02T04:02:09.036960,13.16593900,.0002645,87.9039,261.8387,95.0811,265.0621,0,U,56058,999,13711,.52828E-3,.215E-5,0
ONEWEB-0558,2023-043P,2026-01-02T03:20:01.180320,13.21825895,.000121,87.9222,277.1046,61.4642,298.6614,0,U,56059,999,13630,.11928E-3,.62E-6,0
ONEWEB-0559,2023-043Q,2026-01-02T03:03:24.854400,13.21825513,.0001539,87.9222,277.1004,68.4109,291.7189,0,U,56060,999,13631,-.36459E-3,-.138E-5,0
ONEWEB-0566,2023-043R,2026-01-02T02:53:56.097024,13.21825992,.0001459,87.9223,277.1009,61.0567,299.0713,0,U,56061,999,13629,-.50878E-3,-.197E-5,0
ONEWEB-0568,2023-043S,2026-01-02T02:37:46.968096,13.16593456,.0001483,87.9046,261.8383,90.3083,269.8218,0,U,56062,999,13712,.6715E-4,.39E-6,0
ONEWEB-0574,2023-043T,2026-01-02T02:44:27.273120,13.21827165,.0001758,87.9228,277.0889,76.4273,283.7057,0,U,56063,999,13633,.2578E-5,.14E-6,0
ONEWEB-0575,2023-043U,2026-01-02T02:28:39.698400,13.16593528,.0001834,87.9044,261.8394,84.7209,275.4131,0,U,56064,999,13711,.54454E-4,.34E-6,0
ONEWEB-0576,2023-043V,2026-01-02T03:50:44.906208,13.16593296,.0001701,87.9046,261.8296,81.3717,278.7607,0,U,56065,999,13711,.29463E-3,.125E-5,0
ONEWEB-0577,2023-043W,2026-01-02T03:59:51.641088,13.16593701,.0002252,87.9047,261.8269,82.8926,277.2461,0,U,56066,999,13714,.34132E-3,.143E-5,0
