STARLINK-5786           
1 56032U 23042AY  26002.07845819  .00000433  00000+0  47127-4 0  9993
2 56032  43.0038  44.7506 0001818 267.2458  92.8176 15.02535354153043
STARLINK-5782           
1 56034U 23042BA  26001.47904949 -.00001053  00000+0 -62893-4 0  9996
2 56034  43.0047  47.9945 0001361 275.1341  84.9346 15.02544217152957
STARLINK-5792           
1 56035U 23042BB  26002.15159486  .00003286  00000+0  25814-3 0  9990
2 56035  43.0040  44.4413 0001339 258.3535 101.7157 15.02542810153053
STARLINK-5790           
1 56036U 23042BC  26002.14716141 -.00000424  00000+0 -16310-4 0  9992
2 56036  43.0041  44.4060 0001260 266.9417  93.1281 15.02529886153050
STARLINK-5758           
1 56037U 23042BD  26002.10201662  .00000462  00000+0  49295-4 0  9994
2 56037  43.0053  31.8737 0001349 262.7968  97.2721 15.02535467153199
STARLINK-5793           
1 56038U 23042BE  26002.14160923 -.00001024  00000+0 -60734-4 0  9991
2 56038  43.0036  44.3685 0001023 279.7615  80.3112 15.02545455153058
STARLINK-5795           
1 56039U 23042BF  26002.09757810  .00000327  00000+0  39268-4 0  9994
2 56039  43.0043  31.8381 0001023 272.8675  87.2050 15.02535156153190
STARLINK-5798           
1 56040U 23042BG  26002.09535547  .00000671  00000+0  64710-4 0  9999
2 56040  43.0054  31.8186 0001393 269.0846  90.9837 15.02535705153199
STARLINK-5800           
1 56041U 23042BH  26002.15961289  .00001222  00000+0  10548-3 0  9995
2 56041  43.0042  31.4430 0001345 265.4941  94.5748 15.02540421153202
ONEWEB-0537             
1 56046U 23043A   26002.14124080  .00000005  00000+0 -19591-4 0  9997
2 56046  87.9043 261.8333 0001361  82.1964 277.9322 13.16593650137115
ONEWEB-0538             
1 56047U 23043B   26002.13489902 -.00000015  00000+0 -73378-4 0  9999
2 56047  87.9043 261.8380 0001216  70.8993 289.2269 13.16593376137125
ONEWEB-0546             
1 56048U 23043C   26002.12223573  .00000016  00000+0  93394-5 0  9999
2 56048  87.9054 261.8347 0001465 103.9060 256.2234 13.16593913137112
ONEWEB-0547             
1 56049U 23043D   26002.17098253  .00000089  00000+0  18411-3 0  9995
2 56049  87.9226 277.0878 0001503  68.5932 291.5362 13.21827410136299
ONEWEB-0548             
1 56050U 23043E   26001.76678102  .00000025  00000+0  32665-4 0  9996
2 56050  87.9037 261.9093 0001973  75.3558 284.7792 13.16596197137069
ONEWEB-0549             
1 56051U 23043F   26002.16357050  .00000049  00000+0  87410-4 0  9992
2 56051  87.9225 277.1027 0001421  65.8882 294.2400 13.21828113136295
ONEWEB-0550             
1 56052U 23043G   26002.15041851  .00000034  00000+0  52006-4 0  9998
2 56052  87.9225 277.1009 0001688  79.2446 280.8878 13.21825236136299
ONEWEB-0551             
1 56053U 23043H   26001.74180251 -.00000054  00000+0 -17621-3 0  9998
2 56053  87.9006 292.4499 0001642  67.0724 293.0580 13.15547941134510
ONEWEB-0552             
1 56054U 23043J   26002.14545483  .00000062  00000+0  11752-3 0  9992
2 56054  87.9225 277.1100 0001630  68.3495 291.7812 13.21828778136296
ONEWEB-0553             
1 56055U 23043K   26002.12858392  .00002913  00000+0  75871-2 0  9995
2 56055  87.9033 261.8418 0002038  88.6929 271.4435 13.16569344137120
ONEWEB-0554             
1 56056U 23043L   26002.11590728 -.00000057  00000+0 -18380-3 0  9993
2 56056  87.9036 261.8535 0001794  76.8862 283.2469 13.16595028137101
ONEWEB-0555             
1 56057U 23043M   26002.15390780  .00000124  00000+0  29164-3 0  9999
2 56057  87.9044 261.8286 0001514  95.4337 264.6967 13.16593463137116
ONEWEB-0557             
1 56058U 23043N   26002.16816015  .00000215  00000+0  52828-3 0  9999
2 56058  87.9039 261.8387 0002645  95.0811 265.0621 13.16593900137110
ONEWEB-0558             
1 56059U 23043P   26002.13890255  .00000062  00000+0  11928-3 0  9991
2 56059  87.9222 277.1046 0001210  61.4642 298.6614 13.21825895136304
ONEWEB-0559             
1 56060U 23043Q   26002.12737100 -.00000138  00000+0 -36459-3 0  9993
2 56060  87.9222 277.1004 0001539  68.4109 291.7189 13.21825513136318
ONEWEB-0566             
1 56061U 23043R   26002.12078816 -.00000197  00000+0 -50878-3 0  9992
2 56061  87.9223 277.1009 0001459  61.0567 299.0713 13.21825992136295
ONEWEB-0568             
1 56062U 23043S   26002.10957139  .00000039  00000+0  67150-4 0  9990
2 56062  87.9046 261.8383 0001483  90.3083 269.8218 13.16593456137128
ONEWEB-0574             
1 56063U 23043T   26002.11420455  .00000014  00000+0  25780-5 0  9995
2 56063  87.9228 277.0889 0001758  76.4273 283.7057 13.21827165136333
ONEWEB-0575             
1 56064U 23043U   26002.10323725  .00000034  00000+0  54454-4 0  9998
2 56064  87.9044 261.8394 0001834  84.7209 275.4131 13.16593528137113
ONEWEB-0576             
1 56065U 23043V   26002.16024197  .00000125  00000+0  29463-3 0  9998
2 56065  87.9046 261.8296 0001701  81.3717 278.7607 13.16593296137113
ONEWEB-0577             
1 56066U 23043W   26002.16656992  .00000143  00000+0  34132-3 0  9992
2 56066  87.9047 261.8269 0002252  82.8926 277.2461 13.16593701137141
